IRIDIUM 150             
1 43257U 18030J   23258.29541266  .00000469  00000+0  16058-3 0  9999
2 43257  86.4027 350.8663 0002180  88.2883 271.8563 14.34218154285986
IRIDIUM 143             
1 43258U 18030K   23258.34615017  .00000475  00000+0  16242-3 0  9994
2 43258  86.4033 350.8980 0001935  93.1875 266.9543 14.34219304285924
IRIDIUM 161             
1 43478U 18047C   23258.24785577  .00000588  00000+0  16865-3 0  9990
2 43478  86.4536 148.9208 0002237  80.9989 279.1465 14.43283918280040
IRIDIUM 152             
1 43479U 18047D   23258.17932581  .00000431  00000+0  14678-3 0  9999
2 43479  86.4009 148.8096 0001873  83.4430 276.6979 14.34223857278308
IRIDIUM 147             
1 43480U 18047E   23258.18567553 -.00000160  00000+0 -64054-4 0  9990
2 43480  86.4014 148.7943 0002182  85.8822 274.2623 14.34217863278299
IRIDIUM 110             
1 43481U 18047F   23258.75016250  .00000073  00000+0  19100-4 0  9990
2 43481  86.4014 148.6245 0002360  81.1551 278.9912 14.34214570278362
IRIDIUM 162             
1 43482U 18047G   23258.24151355  .00000549  00000+0  15733-3 0  9996
2 43482  86.4536 148.8267 0002215  81.7235 278.4217 14.43273094280038
IRIDIUM 160             
1 43569U 18061A   23258.69600399  .00000315  00000+0  10543-3 0  9999
2 43569  86.3942 117.0334 0002050  92.7060 267.4370 14.34215336269256
